CircleName,RegionName,DivisionName,OfficeName,Pincode,OfficeType,Delivery,District,StateName,Latitude,Longitude
Tamilnadu Circle,"Western Region, Coimbatore",Tirupur Division,Allapalayam BO,641653,BO,Delivery,COIMBATORE,TAMIL NADU,11.2639900,77.1498900
Tamilnadu Circle,"Western Region, Coimbatore",Tirupur Division,Belladi BO,641104,BO,Delivery,COIMBATORE,TAMIL NADU,11.2655930,76.9757110
Tamilnadu Circle,"Western Region, Coimbatore",Tirupur Division,Chikkarampalayam BO,641104,BO,Delivery,COIMBATORE,TAMIL NADU,11.2486170,76.9823110
Tamilnadu Circle,"Western Region, Coimbatore",Tirupur Division,Mangalakaraipudur BO,641104,BO,Delivery,COIMBATORE,TAMIL NADU,11.2595650,76.9310030
Tamilnadu Circle,"Western Region, Coimbatore",Tirupur Division,Annurmettupalayam BO,641653,BO,Delivery,COIMBATORE,TAMIL NADU,11.2619300,77.1189910
Tamilnadu Circle,"Western Region, Coimbatore",Tirupur Division,Nagammapudur BO,641653,BO,Delivery,COIMBATORE,TAMIL NADU,11.2395860,77.1187910
Tamilnadu Circle,"Western Region, Coimbatore",Tirupur Division,Nallichettipalayam BO,641653,BO,Delivery,COIMBATORE,TAMIL NADU,11.2367530,77.0711550
Tamilnadu Circle,"Western Region, Coimbatore",Tirupur Division,Pilliappampalayam BO,641653,BO,Delivery,COIMBATORE,TAMIL NADU,11.1886500,77.0764430
Tamilnadu Circle,"Western Region, Coimbatore",Tirupur Division,Vadakkalur BO,641653,BO,Delivery,COIMBATORE,TAMIL NADU,11.2731460,77.0962170
Tamilnadu Circle,"Western Region, Coimbatore",Tirupur Division,Kariampalayam BO,641653,BO,Delivery,COIMBATORE,TAMIL NADU,11.2063120,77.0777920
Tamilnadu Circle,"Western Region, Coimbatore",Tirupur Division,Paralipower House BO,641104,BO,Delivery,COIMBATORE,TAMIL NADU,11.2478920,76.7668950
Tamilnadu Circle,"Western Region, Coimbatore",Tirupur Division,Kanjapalli BO,641653,BO,Delivery,COIMBATORE,TAMIL NADU,11.2378980,77.1402770
Tamilnadu Circle,"Western Region, Coimbatore",Tirupur Division,Komarapalayam BO,641653,BO,Delivery,COIMBATORE,TAMIL NADU,11.2186700,77.0990780
Tamilnadu Circle,"Western Region, Coimbatore",Tirupur Division,Pasuravanashi BO,641653,BO,Delivery,COIMBATORE,TAMIL NADU,11.2810040,77.1204410
Tamilnadu Circle,"Western Region, Coimbatore",Tirupur Division,Athappagoundenpudur BO,641103,BO,Delivery,COIMBATORE,TAMIL NADU,11.0323999,77.0744366
Tamilnadu Circle,"Western Region, Coimbatore",Tirupur Division,Chinthamanipudur BO,641103,BO,Delivery,COIMBATORE,TAMIL NADU,11.0083983,77.0744616
Tamilnadu Circle,"Western Region, Coimbatore",Tirupur Division,Odderpalayam BO,641103,BO,Delivery,COIMBATORE,TAMIL NADU,10.9971150,77.0824616
Tamilnadu Circle,"Western Region, Coimbatore",Tirupur Division,Kuppanur BO,641653,BO,Delivery,COIMBATORE,TAMIL NADU,11.2791730,77.0712310
Tamilnadu Circle,"Western Region, Coimbatore",Tirupur Division,Odderpalayam BO,641653,BO,Delivery,COIMBATORE,TAMIL NADU,11.2422470,77.0920980
Tamilnadu Circle,"Western Region, Coimbatore",Tirupur Division,Sokkampalayam BO,641653,BO,Delivery,COIMBATORE,TAMIL NADU,11.2152390,77.1217380
Tamilnadu Circle,"Western Region, Coimbatore",Tirupur Division,Kamatchipuram BO,641103,BO,Non Delivery,COIMBATORE,TAMIL NADU,11.0040533,77.0628883
Tamilnadu Circle,"Western Region, Coimbatore",Tirupur Division,Ravathur BO,641103,BO,Delivery,COIMBATORE,TAMIL NADU,11.0255733,77.0972450
Tamilnadu Circle,"Western Region, Coimbatore",Tirupur Division,Kadampadi BO,641401,BO,Delivery,COIMBATORE,TAMIL NADU,11.0359660,77.1642530
Tamilnadu Circle,"Western Region, Coimbatore",Tirupur Division,Marudur BO,641104,BO,Delivery,COIMBATORE,TAMIL NADU,11.2410260,76.9220770
Tamilnadu Circle,"Western Region, Coimbatore",Tirupur Division,Pillurdam BO,641104,BO,Delivery,COIMBATORE,TAMIL NADU,11.2650590,76.8149600
Tamilnadu Circle,"Western Region, Coimbatore",Tirupur Division,Purandampalayam BO,641669,BO,Delivery,COIMBATORE,TAMIL NADU,10.8658550,77.1711400
Tamilnadu Circle,"Western Region, Coimbatore",Tirupur Division,Vadambachery BO,641669,BO,Delivery,COIMBATORE,TAMIL NADU,11.4449000,77.7110000
Tamilnadu Circle,"Western Region, Coimbatore",Tirupur Division,Chandrapuram BO,641669,BO,Delivery,COIMBATORE,TAMIL NADU,12.5105970,78.4783900
Tamilnadu Circle,"Western Region, Coimbatore",Tirupur Division,Komarapalayam BO,641669,BO,Delivery,COIMBATORE,TAMIL NADU,11.4466640,77.6943350
Tamilnadu Circle,"Western Region, Coimbatore",Tirupur Division,Malayadipalayam BO,641669,BO,Delivery,COIMBATORE,TAMIL NADU,11.4582280,77.7712080
Tamilnadu Circle,"Western Region, Coimbatore",Tirupur Division,Puliamarathupalayam BO,641669,BO,Delivery,COIMBATORE,TAMIL NADU,10.7447930,77.4261910
Tamilnadu Circle,"Western Region, Coimbatore",Pollachi Division,Eripatti B.O,642205,BO,Delivery,COIMBATORE,TAMIL NADU,10.6624000,77.0823000
Tamilnadu Circle,"Western Region, Coimbatore",Pollachi Division,Poosaripatti B.O,642205,BO,Delivery,COIMBATORE,TAMIL NADU,10.5280000,77.6500000
Tamilnadu Circle,"Western Region, Coimbatore",Pollachi Division,Seelakkampatti B.O,642205,BO,Delivery,COIMBATORE,TAMIL NADU,10.6578000,77.1230000
Tamilnadu Circle,"Western Region, Coimbatore",Pollachi Division,A.Nagore B.O,642205,BO,Delivery,COIMBATORE,TAMIL NADU,10.6806000,77.1126000
Tamilnadu Circle,"Western Region, Coimbatore",Tirupur Division,Senjeri BO,641669,BO,Delivery,COIMBATORE,TAMIL NADU,10.8505510,77.1950880
Tamilnadu Circle,"Western Region, Coimbatore",Tirupur Division,Velappanaickenpalayam BO,641669,BO,Delivery,COIMBATORE,TAMIL NADU,10.8878890,77.1584840
Tamilnadu Circle,"Western Region, Coimbatore",Tirupur Division,Chennappachettipudur BO,641659,BO,Delivery,COIMBATORE,TAMIL NADU,11.1644650,77.1129110
Tamilnadu Circle,"Western Region, Coimbatore",Tirupur Division,Vaharayampalayam BO,641659,BO,Delivery,COIMBATORE,TAMIL NADU,11.1446380,77.1341120
Tamilnadu Circle,"Western Region, Coimbatore",Tirupur Division,Palapatti BO,641305,BO,Delivery,COIMBATORE,TAMIL NADU,11.3315960,76.9601760
Tamilnadu Circle,"Western Region, Coimbatore",Tirupur Division,Karegoundenpalayam BO,641697,BO,Delivery,COIMBATORE,TAMIL NADU,11.2161540,77.0704680
Tamilnadu Circle,"Western Region, Coimbatore",Tirupur Division,Muduthurai BO,638459,BO,Delivery,COIMBATORE,TAMIL NADU,11.3537980,77.1306930
Tamilnadu Circle,"Western Region, Coimbatore",Tirupur Division,Bhujanganur BO,641113,BO,Delivery,COIMBATORE,TAMIL NADU,11.2240890,76.8811070
Tamilnadu Circle,"Western Region, Coimbatore",Tirupur Division,Akkaraisengapalli BO,641302,BO,Delivery,COIMBATORE,TAMIL NADU,11.3261260,77.0817850
Tamilnadu Circle,"Western Region, Coimbatore",Tirupur Division,Ichipatti BO,641668,BO,Delivery,COIMBATORE,TAMIL NADU,11.0579160,77.1918040
Tamilnadu Circle,"Western Region, Coimbatore",Tirupur Division,Kalingal BO,641402,BO,Delivery,COIMBATORE,TAMIL NADU,10.9910950,77.1364616
Tamilnadu Circle,"Western Region, Coimbatore",Tirupur Division,Muthugoundenpudur BO,641402,BO,Delivery,COIMBATORE,TAMIL NADU,11.0503850,77.1180760
Tamilnadu Circle,"Western Region, Coimbatore",Pollachi Division,Marappagoundenpudur B.O,642103,BO,Delivery,COIMBATORE,TAMIL NADU,10.5921000,76.5699000
Tamilnadu Circle,"Western Region, Coimbatore",Pollachi Division,Chinnappampalayam B.O,642104,BO,Delivery,COIMBATORE,TAMIL NADU,10.6550000,77.0363000
Tamilnadu Circle,"Western Region, Coimbatore",Pollachi Division,Cinchona East B.O,642106,BO,Delivery,COIMBATORE,TAMIL NADU,10.6125500,76.9465000
Tamilnadu Circle,"Western Region, Coimbatore",Pollachi Division,Periya Kallar B.O,642106,BO,Delivery,COIMBATORE,TAMIL NADU,10.6125500,76.9465000
Tamilnadu Circle,"Western Region, Coimbatore",Pollachi Division,Dasanaicken Palayam B.O,642202,BO,Delivery,COIMBATORE,TAMIL NADU,10.8312000,77.1571000
Tamilnadu Circle,"Western Region, Coimbatore",Pollachi Division,Mohavanur B.O,642202,BO,Delivery,COIMBATORE,TAMIL NADU,10.7942000,77.1974000
Tamilnadu Circle,"Western Region, Coimbatore",Pollachi Division,Palarpathy B.O,642109,BO,Delivery,COIMBATORE,TAMIL NADU,9.9392000,77.4006000
Tamilnadu Circle,"Western Region, Coimbatore",Pollachi Division,Singarampalayam B.O,642109,BO,Delivery,COIMBATORE,TAMIL NADU,10.8021000,77.0096000
Tamilnadu Circle,"Western Region, Coimbatore",Pollachi Division,Alagirichettipalayam B.O,642110,BO,Delivery,COIMBATORE,TAMIL NADU,10.7379000,76.9758000
Tamilnadu Circle,"Western Region, Coimbatore",Pollachi Division,Achipatti B.O,642002,BO,Delivery,COIMBATORE,TAMIL NADU,10.6570000,77.0110000
Tamilnadu Circle,"Western Region, Coimbatore",Pollachi Division,Kurumbapalayam B.O,642002,BO,Delivery,COIMBATORE,TAMIL NADU,10.6460000,77.0050000
Tamilnadu Circle,"Western Region, Coimbatore",Pollachi Division,Palanigoundenpudur B.O,642002,BO,Delivery,COIMBATORE,TAMIL NADU,10.6570000,77.0110000
Tamilnadu Circle,"Western Region, Coimbatore",Pollachi Division,Puliampatti B.O,642002,BO,Delivery,COIMBATORE,TAMIL NADU,10.6460000,77.0050000
Tamilnadu Circle,"Western Region, Coimbatore",Pollachi Division,Nallamudi B.O,642117,BO,Delivery,COIMBATORE,TAMIL NADU,10.6572827,77.0106603
Tamilnadu Circle,"Western Region, Coimbatore",Pollachi Division,Vadugapalayam B.O,642001,BO,Non Delivery,COIMBATORE,TAMIL NADU,10.6711000,76.9945000
Tamilnadu Circle,"Western Region, Coimbatore",Pollachi Division,Chinna Negamam B.O,642120,BO,Delivery,COIMBATORE,TAMIL NADU,10.7339000,77.1187000
Tamilnadu Circle,"Western Region, Coimbatore",Pollachi Division,Devenampalayam B.O,642120,BO,Delivery,COIMBATORE,TAMIL NADU,10.7691000,77.0759000
Tamilnadu Circle,"Western Region, Coimbatore",Pollachi Division,Kakkadavoo B.O,642120,BO,Delivery,COIMBATORE,TAMIL NADU,10.7422000,77.0605000
Tamilnadu Circle,"Western Region, Coimbatore",Pollachi Division,Kappalankarai B.O,642120,BO,Delivery,COIMBATORE,TAMIL NADU,10.7740000,77.0945000
Tamilnadu Circle,"Western Region, Coimbatore",Pollachi Division,Thondamuthur B.O,642123,BO,Delivery,COIMBATORE,TAMIL NADU,10.9750000,76.8630000
Tamilnadu Circle,"Western Region, Coimbatore",Pollachi Division,Murugali Bazaar B.O,642125,BO,Delivery,COIMBATORE,TAMIL NADU,10.6377500,77.0395500
Tamilnadu Circle,"Western Region, Coimbatore",Pollachi Division,Sheikalmudi B.O,642125,BO,Delivery,COIMBATORE,TAMIL NADU,10.6572847,77.0106583
Tamilnadu Circle,"Western Region, Coimbatore",Pollachi Division,Akilandapuram B.O,642004,BO,Delivery,COIMBATORE,TAMIL NADU,8.9340000,77.9970000
Tamilnadu Circle,"Western Region, Coimbatore",Pollachi Division,Karuppampalayam B.O,642004,BO,Delivery,COIMBATORE,TAMIL NADU,10.6410000,76.9800000
Tamilnadu Circle,"Western Region, Coimbatore",Pollachi Division,Korangumudi B.O,642127,BO,Delivery,COIMBATORE,TAMIL NADU,10.6572847,77.0106583
Tamilnadu Circle,"Western Region, Coimbatore",Pollachi Division,Manamboli B.O,642127,BO,Delivery,COIMBATORE,TAMIL NADU,10.6572827,77.0106603
Tamilnadu Circle,"Western Region, Coimbatore",Pollachi Division,Nirar Dam B.O,642127,BO,Delivery,COIMBATORE,TAMIL NADU,10.3431000,76.9930200
Tamilnadu Circle,"Western Region, Coimbatore",Pollachi Division,Old Valparai B.O,642127,BO,Delivery,COIMBATORE,TAMIL NADU,10.3431000,76.9930200
Tamilnadu Circle,"Western Region, Coimbatore",Pollachi Division,Thimmankothu B.O,642005,BO,Delivery,COIMBATORE,TAMIL NADU,10.6530000,76.9239000
Tamilnadu Circle,"Western Region, Coimbatore",Pollachi Division,Thippampatti B.O,642107,BO,Delivery,COIMBATORE,TAMIL NADU,10.6503000,77.0757000
Tamilnadu Circle,"Western Region, Coimbatore",Pollachi Division,Kadamparai Power House B.O,642101,BO,Delivery,COIMBATORE,TAMIL NADU,10.4341687,77.0043374
Tamilnadu Circle,"Western Region, Coimbatore",Pollachi Division,Minparai B.O,642101,BO,Delivery,COIMBATORE,TAMIL NADU,10.6572817,77.0106613
Tamilnadu Circle,"Western Region, Coimbatore",Pollachi Division,Navamalai Camp B.O,642101,BO,Delivery,COIMBATORE,TAMIL NADU,10.4560849,77.0053319
Tamilnadu Circle,"Western Region, Coimbatore",Pollachi Division,Upper Aliyar Dam B.O,642101,BO,Delivery,COIMBATORE,TAMIL NADU,10.6220000,76.9753500
Tamilnadu Circle,"Western Region, Coimbatore",Pollachi Division,Athu Pollachi B.O,642103,BO,Delivery,COIMBATORE,TAMIL NADU,10.6465000,76.9244000
Tamilnadu Circle,"Western Region, Coimbatore",Pollachi Division,Divansapudur B.O,642103,BO,Delivery,COIMBATORE,TAMIL NADU,10.6294000,76.8714000
Tamilnadu Circle,"Western Region, Coimbatore",Pollachi Division,Ganapathipalayam B.O,642103,BO,Delivery,COIMBATORE,TAMIL NADU,10.6221000,76.8405000
Tamilnadu Circle,"Western Region, Coimbatore",Tirupur Division,Kaniyurpalladam BO,641659,BO,Delivery,COIMBATORE,TAMIL NADU,11.0967450,77.1564280
Tamilnadu Circle,"Western Region, Coimbatore",Pollachi Division,Thathur B.O,642104,BO,Delivery,COIMBATORE,TAMIL NADU,10.6009000,76.9295000
Tamilnadu Circle,"Western Region, Coimbatore",Pollachi Division,Vellamalai B.O,642130,BO,Delivery,COIMBATORE,TAMIL NADU,10.6572837,77.0106593
Tamilnadu Circle,"Western Region, Coimbatore",Pollachi Division,Vadakkipalayam B.O,642110,BO,Delivery,COIMBATORE,TAMIL NADU,10.7390000,76.9852000
Tamilnadu Circle,"Western Region, Coimbatore",Pollachi Division,Kanjampatti B.O,642003,BO,Delivery,COIMBATORE,TAMIL NADU,10.6273000,77.0788000
Tamilnadu Circle,"Western Region, Coimbatore",Pollachi Division,Unjavelampatti B.O,642003,BO,Delivery,COIMBATORE,TAMIL NADU,10.6625000,77.0521000
Tamilnadu Circle,"Western Region, Coimbatore",Pollachi Division,Vellalapalayam B.O,642120,BO,Delivery,COIMBATORE,TAMIL NADU,10.6957000,77.0611000
Tamilnadu Circle,"Western Region, Coimbatore",Pollachi Division,Mettubavi B.O,641202,BO,Delivery,COIMBATORE,TAMIL NADU,10.8400000,77.1205000
Tamilnadu Circle,"Western Region, Coimbatore",Pollachi Division,Urulikkal B.O,642127,BO,Delivery,COIMBATORE,TAMIL NADU,10.6572827,77.0106603
Tamilnadu Circle,"Western Region, Coimbatore",Pollachi Division,Odayakulam B.O,642129,BO,Delivery,COIMBATORE,TAMIL NADU,10.5611667,76.9179105
Tamilnadu Circle,"Western Region, Coimbatore",Pollachi Division,Mannur B.O,642005,BO,Delivery,COIMBATORE,TAMIL NADU,10.6902000,76.9074000
Tamilnadu Circle,"Western Region, Coimbatore",Pollachi Division,Reddiarur B.O,642007,BO,Delivery,COIMBATORE,TAMIL NADU,10.6572827,77.0106603
Tamilnadu Circle,"Western Region, Coimbatore",Pollachi Division,Kolarpatti B.O,642107,BO,Delivery,COIMBATORE,TAMIL NADU,10.6267000,77.1115000
Tamilnadu Circle,"Western Region, Coimbatore",Pollachi Division,Lakshmapuram B.O,642107,BO,Delivery,COIMBATORE,TAMIL NADU,10.5950000,77.1294000
Tamilnadu Circle,"Western Region, Coimbatore",Tirupur Division,Moperipalayam BO,641659,BO,Delivery,COIMBATORE,TAMIL NADU,11.1341670,77.1456140
Tamilnadu Circle,"Western Region, Coimbatore",Tirupur Division,Dasanur BO,641305,BO,Delivery,COIMBATORE,TAMIL NADU,11.2966440,76.9255100
Tamilnadu Circle,"Western Region, Coimbatore",Tirupur Division,Kallar BO,641305,BO,Delivery,COIMBATORE,TAMIL NADU,11.3391490,76.8777780
Tamilnadu Circle,"Western Region, Coimbatore",Tirupur Division,Ellapalayam BO,641697,BO,Delivery,COIMBATORE,TAMIL NADU,11.1962410,77.0581090
Tamilnadu Circle,"Western Region, Coimbatore",Tirupur Division,Therampalayam BO,641697,BO,Delivery,COIMBATORE,TAMIL NADU,11.2746720,76.9989810
Tamilnadu Circle,"Western Region, Coimbatore",Tirupur Division,Ambodi BO,638459,BO,Delivery,COIMBATORE,TAMIL NADU,11.3196180,77.1240930
Tamilnadu Circle,"Western Region, Coimbatore",Tirupur Division,Thekkampatti BO,641113,BO,Delivery,COIMBATORE,TAMIL NADU,11.2609390,76.8801910
Tamilnadu Circle,"Western Region, Coimbatore",Tirupur Division,Tholampalayam BO,641113,BO,Delivery,COIMBATORE,TAMIL NADU,11.1833480,76.8348730
Tamilnadu Circle,"Western Region, Coimbatore",Tirupur Division,Vivekanandapuram BO,641113,BO,Delivery,COIMBATORE,TAMIL NADU,11.2451460,76.8795040
Tamilnadu Circle,"Western Region, Coimbatore",Tirupur Division,Bellaipalayam BO,641302,BO,Delivery,COIMBATORE,TAMIL NADU,11.2947120,77.0206730
Tamilnadu Circle,"Western Region, Coimbatore",Tirupur Division,Athikadavu BO,641104,BO,Delivery,COIMBATORE,TAMIL NADU,11.2121870,76.7552220
Tamilnadu Circle,"Western Region, Coimbatore",Tirupur Division,Giddampalayam BO,641659,BO,Delivery,COIMBATORE,TAMIL NADU,11.1461830,77.1588320
Tamilnadu Circle,"Western Region, Coimbatore",Tirupur Division,Kaduvettipalayam BO,641659,BO,Delivery,COIMBATORE,TAMIL NADU,11.1872770,77.1423610
Tamilnadu Circle,"Western Region, Coimbatore",Tirupur Division,Pethikuttai BO,638459,BO,Delivery,COIMBATORE,TAMIL NADU,11.3761520,77.0738540
Tamilnadu Circle,"Western Region, Coimbatore",Tirupur Division,Jadayampalayam BO,641302,BO,Delivery,COIMBATORE,TAMIL NADU,11.2966440,76.9797550
Tamilnadu Circle,"Western Region, Coimbatore",Tirupur Division,Sinnakallipatti BO,641302,BO,Delivery,COIMBATORE,TAMIL NADU,11.3897320,77.1055160
Tamilnadu Circle,"Western Region, Coimbatore",Tirupur Division,Thimmanur BO,641302,BO,Delivery,COIMBATORE,TAMIL NADU,11.3321200,77.0673150
Tamilnadu Circle,"Western Region, Coimbatore",Tirupur Division,Karavalimadapur BO,641668,BO,Delivery,COIMBATORE,TAMIL NADU,11.0683980,77.1594030
Tamilnadu Circle,"Western Region, Coimbatore",Tirupur Division,Semmandampalayam BO,641668,BO,Delivery,COIMBATORE,TAMIL NADU,11.1086090,77.2209640
Tamilnadu Circle,"Western Region, Coimbatore",Tirupur Division,Appanaickenpatti BO,641402,BO,Delivery,COIMBATORE,TAMIL NADU,10.9749010,77.1564230
Tamilnadu Circle,"Western Region, Coimbatore",Tirupur Division,Rasipalayam BO,641402,BO,Delivery,COIMBATORE,TAMIL NADU,11.0613140,77.1324040
Tamilnadu Circle,"Western Region, Coimbatore",Tirupur Division,Illuppapalayam BO,641302,BO,Delivery,COIMBATORE,TAMIL NADU,11.3377760,76.9986280
Tamilnadu Circle,"Western Region, Coimbatore",Tirupur Division,Subbarayanpudur BO,641668,BO,Delivery,COIMBATORE,TAMIL NADU,11.0993390,77.2130670
Tamilnadu Circle,"Western Region, Coimbatore",Pollachi Division,Periapodu B.O,642103,BO,Delivery,COIMBATORE,TAMIL NADU,10.6099000,76.8807000
Tamilnadu Circle,"Western Region, Coimbatore",Pollachi Division,Kattampatti B.O,642202,BO,Delivery,COIMBATORE,TAMIL NADU,10.8072000,77.1442000
Tamilnadu Circle,"Western Region, Coimbatore",Pollachi Division,Moongiltholuvu B.O,642202,BO,Delivery,COIMBATORE,TAMIL NADU,10.7640000,77.2129000
Tamilnadu Circle,"Western Region, Coimbatore",Pollachi Division,Arasampalayam B.O,642109,BO,Delivery,COIMBATORE,TAMIL NADU,10.0579000,77.5207000
Tamilnadu Circle,"Western Region, Coimbatore",Pollachi Division,Muthur B.O,642109,BO,Delivery,COIMBATORE,TAMIL NADU,10.8052000,77.0526000
Tamilnadu Circle,"Western Region, Coimbatore",Pollachi Division,Solavampalayam B.O,642109,BO,Delivery,COIMBATORE,TAMIL NADU,10.8377000,77.0259000
Tamilnadu Circle,"Western Region, Coimbatore",Pollachi Division,Devarayapuram B.O,642110,BO,Delivery,COIMBATORE,TAMIL NADU,10.9991000,76.8173000
Tamilnadu Circle,"Western Region, Coimbatore",Pollachi Division,Kaliapuram B.O,642110,BO,Delivery,COIMBATORE,TAMIL NADU,10.5400000,76.9211000
Tamilnadu Circle,"Western Region, Coimbatore",Pollachi Division,Poravipalayam B.O,642110,BO,Delivery,COIMBATORE,TAMIL NADU,10.0973000,76.9386000
Tamilnadu Circle,"Western Region, Coimbatore",Pollachi Division,T.Kottampatti B.O,642002,BO,Non Delivery,COIMBATORE,TAMIL NADU,10.6690000,77.0190000
Tamilnadu Circle,"Western Region, Coimbatore",Pollachi Division,Pollachi West B.O,642001,BO,Delivery,COIMBATORE,TAMIL NADU,10.6547000,77.0046000
Tamilnadu Circle,"Western Region, Coimbatore",Pollachi Division,Andipalayam B.O,642120,BO,Delivery,COIMBATORE,TAMIL NADU,10.7368000,77.0982000
Tamilnadu Circle,"Western Region, Coimbatore",Pollachi Division,Kondegoundenpalayam B.O,642120,BO,Delivery,COIMBATORE,TAMIL NADU,10.7236000,77.1088000
Tamilnadu Circle,"Western Region, Coimbatore",Pollachi Division,Senguttaipalayam B.O,642120,BO,Delivery,COIMBATORE,TAMIL NADU,10.7112000,77.0556000
Tamilnadu Circle,"Western Region, Coimbatore",Pollachi Division,Zamin Kottampatti B.O,642123,BO,Delivery,COIMBATORE,TAMIL NADU,10.5910000,77.0140000
Tamilnadu Circle,"Western Region, Coimbatore",Pollachi Division,Topslip B.O,642133,BO,Delivery,COIMBATORE,TAMIL NADU,10.6472000,76.9625500
Tamilnadu Circle,"Western Region, Coimbatore",Pollachi Division,Pethanaickanur B.O,642134,BO,Delivery,COIMBATORE,TAMIL NADU,10.6572877,77.0106553
Tamilnadu Circle,"Western Region, Coimbatore",Pollachi Division,Kurunallipalayam B.O,641202,BO,Delivery,COIMBATORE,TAMIL NADU,10.8150000,77.0839000
Tamilnadu Circle,"Western Region, Coimbatore",Pollachi Division,High Forest B.O,642127,BO,Delivery,COIMBATORE,TAMIL NADU,10.3431000,76.9930200
Tamilnadu Circle,"Western Region, Coimbatore",Pollachi Division,Pannimade B.O,642127,BO,Delivery,COIMBATORE,TAMIL NADU,10.6572827,77.0106603
Tamilnadu Circle,"Western Region, Coimbatore",Pollachi Division,Sirukundra B.O,642127,BO,Delivery,COIMBATORE,TAMIL NADU,10.3002800,76.9655540
Tamilnadu Circle,"Western Region, Coimbatore",Pollachi Division,Vellonie B.O,642127,BO,Delivery,COIMBATORE,TAMIL NADU,10.6572817,77.0106613
Tamilnadu Circle,"Western Region, Coimbatore",Pollachi Division,Kaliapuram B.O,642129,BO,Delivery,COIMBATORE,TAMIL NADU,10.5485907,76.9104375
Tamilnadu Circle,"Western Region, Coimbatore",Pollachi Division,Mount Stuart B.O,642105,BO,Delivery,COIMBATORE,TAMIL NADU,10.6661000,76.9657500
Tamilnadu Circle,"Western Region, Coimbatore",Pollachi Division,Waverly B.O,642105,BO,Delivery,COIMBATORE,TAMIL NADU,10.4123854,76.9880767
Tamilnadu Circle,"Western Region, Coimbatore",Pollachi Division,Mappillaigoundenpudur B.O,642005,BO,Delivery,COIMBATORE,TAMIL NADU,10.7247000,76.9164000
Tamilnadu Circle,"Western Region, Coimbatore",Pollachi Division,Ramapattinam B.O,642005,BO,Delivery,COIMBATORE,TAMIL NADU,10.7103000,76.9178000
Tamilnadu Circle,"Western Region, Coimbatore",Pollachi Division,Thenkumarapalayam B.O,642107,BO,Delivery,COIMBATORE,TAMIL NADU,10.5911000,77.0963000
Tamilnadu Circle,"Western Region, Coimbatore",Tirupur Division,Velliankadu BO,641104,BO,Delivery,COIMBATORE,TAMIL NADU,11.2163070,76.8204530
Tamilnadu Circle,"Western Region, Coimbatore",Tirupur Division,Paduvampalli BO,641659,BO,Delivery,COIMBATORE,TAMIL NADU,11.1934570,77.1334340
Tamilnadu Circle,"Western Region, Coimbatore",Tirupur Division,Nellithurai BO,641305,BO,Delivery,COIMBATORE,TAMIL NADU,11.2870310,76.8849980
Tamilnadu Circle,"Western Region, Coimbatore",Tirupur Division,Periaputhur BO,641697,BO,Delivery,COIMBATORE,TAMIL NADU,11.2298640,77.0274280
Tamilnadu Circle,"Western Region, Coimbatore",Tirupur Division,Vadavallikaramadai BO,641697,BO,Delivery,COIMBATORE,TAMIL NADU,11.2565140,77.0114930
Tamilnadu Circle,"Western Region, Coimbatore",Tirupur Division,Irumborai BO,638459,BO,Delivery,COIMBATORE,TAMIL NADU,11.3518910,77.0949110
Tamilnadu Circle,"Western Region, Coimbatore",Tirupur Division,Kanuvakarai BO,638459,BO,Delivery,COIMBATORE,TAMIL NADU,11.3347240,77.1189440
Tamilnadu Circle,"Western Region, Coimbatore",Tirupur Division,Sellappampalayam BO,638459,BO,Delivery,COIMBATORE,TAMIL NADU,11.3263320,77.1464860
Tamilnadu Circle,"Western Region, Coimbatore",Tirupur Division,Medur BO,641113,BO,Delivery,COIMBATORE,TAMIL NADU,11.2266830,76.8777500
Tamilnadu Circle,"Western Region, Coimbatore",Tirupur Division,Alancombu BO,641302,BO,Delivery,COIMBATORE,TAMIL NADU,11.3123930,76.9932070
Tamilnadu Circle,"Western Region, Coimbatore",Tirupur Division,Kannampalayam BO,641402,BO,Delivery,COIMBATORE,TAMIL NADU,10.9930500,77.0974833
Tamilnadu Circle,"Western Region, Coimbatore",Tirupur Division,Jalakarichal BO,641658,BO,Delivery,COIMBATORE,TAMIL NADU,11.0168440,76.9558320
Tamilnadu Circle,"Western Region, Coimbatore",Tirupur Division,Jallipatti BO,641671,BO,Delivery,COIMBATORE,TAMIL NADU,10.8498020,77.2755080
Tamilnadu Circle,"Western Region, Coimbatore",Tirupur Division,Kammalapatti BO,641671,BO,Delivery,COIMBATORE,TAMIL NADU,10.8417040,77.2509320
Tamilnadu Circle,"Western Region, Coimbatore",Tirupur Division,Vadavedampatti BO,641671,BO,Delivery,COIMBATORE,TAMIL NADU,10.8598260,77.2214740
Tamilnadu Circle,"Western Region, Coimbatore",Tirupur Division,Lakshminaickenpalayam BO,641658,BO,Delivery,COIMBATORE,TAMIL NADU,10.9249800,77.1513920
Tamilnadu Circle,"Western Region, Coimbatore",Tirupur Division,JKrishnapuram BO,641671,BO,Delivery,COIMBATORE,TAMIL NADU,10.8048960,77.2383600
Tamilnadu Circle,"Western Region, Coimbatore",Tirupur Division,Senjeriputhur BO,641671,BO,Delivery,COIMBATORE,TAMIL NADU,10.8171910,77.2761280
Tamilnadu Circle,"Western Region, Coimbatore",Pollachi Division,Subbegoundenpudur B.O,642103,BO,Delivery,COIMBATORE,TAMIL NADU,10.6286000,76.9326000
Tamilnadu Circle,"Western Region, Coimbatore",Pollachi Division,Chinnakallar B.O,642106,BO,Delivery,COIMBATORE,TAMIL NADU,10.6125500,76.9465000
Tamilnadu Circle,"Western Region, Coimbatore",Pollachi Division,Paralai B.O,642108,BO,Delivery,COIMBATORE,TAMIL NADU,10.6572807,77.0106623
Tamilnadu Circle,"Western Region, Coimbatore",Pollachi Division,Sirukalandai B.O,642202,BO,Delivery,COIMBATORE,TAMIL NADU,10.7855000,77.1226000
Tamilnadu Circle,"Western Region, Coimbatore",Pollachi Division,Kothavadi B.O,642109,BO,Delivery,COIMBATORE,TAMIL NADU,10.8066000,77.0503000
Tamilnadu Circle,"Western Region, Coimbatore",Pollachi Division,Nallattipalayam B.O,642109,BO,Delivery,COIMBATORE,TAMIL NADU,10.7858000,77.0319000
Tamilnadu Circle,"Western Region, Coimbatore",Pollachi Division,Sokkanur B.O,642109,BO,Delivery,COIMBATORE,TAMIL NADU,10.8098000,76.9456000
Tamilnadu Circle,"Western Region, Coimbatore",Pollachi Division,Thamaraikulam B.O,642109,BO,Delivery,COIMBATORE,TAMIL NADU,10.1076000,77.5548000
Tamilnadu Circle,"Western Region, Coimbatore",Pollachi Division,Mettupalayam B.O,642110,BO,Delivery,COIMBATORE,TAMIL NADU,10.0973000,76.9386000
Tamilnadu Circle,"Western Region, Coimbatore",Pollachi Division,Sulakkal B.O,642110,BO,Delivery,COIMBATORE,TAMIL NADU,10.7504000,76.9938000
Tamilnadu Circle,"Western Region, Coimbatore",Pollachi Division,R.Ponnapuram B.O,642002,BO,Delivery,COIMBATORE,TAMIL NADU,10.7570000,77.5620000
Tamilnadu Circle,"Western Region, Coimbatore",Pollachi Division,Settiakkapalayam B.O,642120,BO,Delivery,COIMBATORE,TAMIL NADU,10.7510000,76.9799000
Tamilnadu Circle,"Western Region, Coimbatore",Pollachi Division,Sarkarpathi B.O,642133,BO,Delivery,COIMBATORE,TAMIL NADU,10.6472000,76.9625500
Tamilnadu Circle,"Western Region, Coimbatore",Pollachi Division,Ramanamudali Pudur B.O,642134,BO,Delivery,COIMBATORE,TAMIL NADU,10.5685500,76.9946500
Tamilnadu Circle,"Western Region, Coimbatore",Pollachi Division,Kondampatti B.O,641202,BO,Delivery,COIMBATORE,TAMIL NADU,10.8283000,77.0550000
Tamilnadu Circle,"Western Region, Coimbatore",Pollachi Division,Akkamalai B.O,642127,BO,Delivery,COIMBATORE,TAMIL NADU,10.6572827,77.0106603
Tamilnadu Circle,"Western Region, Coimbatore",Pollachi Division,Sholayar B.O,642127,BO,Delivery,COIMBATORE,TAMIL NADU,10.3153160,76.9473660
Tamilnadu Circle,"Western Region, Coimbatore",Pollachi Division,Thalanar B.O,642105,BO,Delivery,COIMBATORE,TAMIL NADU,10.3850650,76.9943354
Tamilnadu Circle,"Western Region, Coimbatore",Pollachi Division,Devambadi B.O,642005,BO,Delivery,COIMBATORE,TAMIL NADU,10.7068000,76.9405000
Tamilnadu Circle,"Western Region, Coimbatore",Pollachi Division,Nalluthukuli B.O,642005,BO,Delivery,COIMBATORE,TAMIL NADU,10.6702000,76.9329000
Tamilnadu Circle,"Western Region, Coimbatore",Pollachi Division,Thalakarai B.O,642005,BO,Delivery,COIMBATORE,TAMIL NADU,10.2569000,77.9850000
Tamilnadu Circle,"Western Region, Coimbatore",Pollachi Division,Kambalapatti B.O,642007,BO,Delivery,COIMBATORE,TAMIL NADU,10.6572857,77.0106573
Tamilnadu Circle,"Western Region, Coimbatore",Pollachi Division,Vedasanthur B.O,642007,BO,Delivery,COIMBATORE,TAMIL NADU,10.4804000,76.9786000
Tamilnadu Circle,"Western Region, Coimbatore",Coimbatore Division,Eachanari BO,641021,BO,Delivery,COIMBATORE,TAMIL NADU,10.9229750,76.9829150
Tamilnadu Circle,"Western Region, Coimbatore",Coimbatore Division,Bodipalayam BO,641105,BO,Non Delivery,COIMBATORE,TAMIL NADU,10.9027183,76.9767850
Tamilnadu Circle,"Western Region, Coimbatore",Coimbatore Division,Pattanam BO,641016,BO,Delivery,COIMBATORE,TAMIL NADU,10.9811850,77.0596083
Tamilnadu Circle,"Western Region, Coimbatore",Coimbatore Division,Kumittipathi BO,641032,BO,Delivery,COIMBATORE,TAMIL NADU,10.8349900,76.8904800
Tamilnadu Circle,"Western Region, Coimbatore",Tirupur Division,Bogampatti BO,641658,BO,Delivery,COIMBATORE,TAMIL NADU,10.9026750,77.1164260
Tamilnadu Circle,"Western Region, Coimbatore",Tirupur Division,Siddanaickenpalayam BO,641658,BO,Delivery,COIMBATORE,TAMIL NADU,11.0174390,76.9844680
Tamilnadu Circle,"Western Region, Coimbatore",Tirupur Division,SAyyampalayam BO,641671,BO,Delivery,COIMBATORE,TAMIL NADU,10.8301550,77.2343140
Tamilnadu Circle,"Western Region, Coimbatore",Tirupur Division,Talakkarai BO,641671,BO,Delivery,COIMBATORE,TAMIL NADU,10.8130830,77.2317140
Tamilnadu Circle,"Western Region, Coimbatore",Coimbatore Division,Masthigoundenpathi BO,641032,BO,Delivery,COIMBATORE,TAMIL NADU,10.8429966,76.9187650
Tamilnadu Circle,"Western Region, Coimbatore",Coimbatore Division,Meenakshipuram BO,641032,BO,Delivery,COIMBATORE,TAMIL NADU,10.8286616,76.9609883
Tamilnadu Circle,"Western Region, Coimbatore",Coimbatore Division,Keeranatham BO,641035,BO,Delivery,COIMBATORE,TAMIL NADU,11.1203077,76.9972190
Tamilnadu Circle,"Western Region, Coimbatore",Coimbatore Division,Kallipalayam BO,641107,BO,Delivery,COIMBATORE,TAMIL NADU,11.1162414,77.0624737
Tamilnadu Circle,"Western Region, Coimbatore",Coimbatore Division,Oraikkalpalayam BO,641107,BO,Delivery,COIMBATORE,TAMIL NADU,11.1572870,77.0658300
Tamilnadu Circle,"Western Region, Coimbatore",Coimbatore Division,Odayampalayam BO,641028,BO,Non Delivery,COIMBATORE,TAMIL NADU,11.0114731,77.0022409
Tamilnadu Circle,"Western Region, Coimbatore",Coimbatore Division,Athipalayam BO,641110,BO,Delivery,COIMBATORE,TAMIL NADU,11.1190088,76.9794510
Tamilnadu Circle,"Western Region, Coimbatore",Coimbatore Division,Ettimadai BO,641112,BO,Non Delivery,COIMBATORE,TAMIL NADU,10.8904766,76.9075216
Tamilnadu Circle,"Western Region, Coimbatore",Coimbatore Division,Vellanaipatti BO,641048,BO,Delivery,COIMBATORE,TAMIL NADU,11.0968659,77.0704878
Tamilnadu Circle,"Western Region, Coimbatore",Coimbatore Division,Sinnanavakkarai BO,641105,BO,Delivery,COIMBATORE,TAMIL NADU,10.8661266,76.8777883
Tamilnadu Circle,"Western Region, Coimbatore",Coimbatore Division,Thirumalayampalayam BO,641105,BO,Delivery,COIMBATORE,TAMIL NADU,10.8797050,76.9286900
Tamilnadu Circle,"Western Region, Coimbatore",Coimbatore Division,Peedampalli BO,641016,BO,Delivery,COIMBATORE,TAMIL NADU,10.9731150,77.0839650
Tamilnadu Circle,"Western Region, Coimbatore",Coimbatore Division,Arisipalayam BO,641032,BO,Delivery,COIMBATORE,TAMIL NADU,10.8679000,76.9746900
Tamilnadu Circle,"Western Region, Coimbatore",Coimbatore Division,Elur BO,641032,BO,Delivery,COIMBATORE,TAMIL NADU,10.8421133,77.0080800
Tamilnadu Circle,"Western Region, Coimbatore",Coimbatore Division,Konavaikalpalayam BO,641023,BO,Non Delivery,COIMBATORE,TAMIL NADU,10.9646000,77.0006066
Tamilnadu Circle,"Western Region, Coimbatore",Coimbatore Division,Kunnathurpudur BO,641107,BO,Delivery,COIMBATORE,TAMIL NADU,11.1467260,77.0528693
Tamilnadu Circle,"Western Region, Coimbatore",Coimbatore Division,Kuppaipalayam BO,641107,BO,Delivery,COIMBATORE,TAMIL NADU,11.1819108,77.0295819
Tamilnadu Circle,"Western Region, Coimbatore",Coimbatore Division,Masagoundenchettipalayam BO,641107,BO,Delivery,COIMBATORE,TAMIL NADU,11.1482710,77.0760267
Tamilnadu Circle,"Western Region, Coimbatore",Coimbatore Division,Nilambur BO,641062,BO,Delivery,COIMBATORE,TAMIL NADU,11.0615366,77.0827666
Tamilnadu Circle,"Western Region, Coimbatore",Coimbatore Division,Venkitapuram BO,641062,BO,Delivery,COIMBATORE,TAMIL NADU,11.0532816,77.0724216
Tamilnadu Circle,"Western Region, Coimbatore",Coimbatore Division,Mathipalayam BO,641101,BO,Delivery,COIMBATORE,TAMIL NADU,10.9326266,76.8420916
Tamilnadu Circle,"Western Region, Coimbatore",Coimbatore Division,Nathegoundenpudur BO,641101,BO,Non Delivery,COIMBATORE,TAMIL NADU,10.9368100,76.7954183
Tamilnadu Circle,"Western Region, Coimbatore",Coimbatore Division,Veerapandi Periyanaickenpalaya BO,641019,BO,Delivery,COIMBATORE,TAMIL NADU,11.1778467,76.9603959
Tamilnadu Circle,"Western Region, Coimbatore",Coimbatore Division,Ishana Vihar BO,641114,BO,Delivery,COIMBATORE,TAMIL NADU,10.9765466,76.7374116
Tamilnadu Circle,"Western Region, Coimbatore",Coimbatore Division,Rakkipalayam BO,641031,BO,Delivery,COIMBATORE,TAMIL NADU,11.1055299,76.9433600
Tamilnadu Circle,"Western Region, Coimbatore",Coimbatore Division,Kuppanur BO,641010,BO,Delivery,COIMBATORE,TAMIL NADU,10.9493500,76.8622283
Tamilnadu Circle,"Western Region, Coimbatore",Coimbatore Division,Madampatti BO,641010,BO,Delivery,COIMBATORE,TAMIL NADU,10.9690116,76.8615533
Tamilnadu Circle,"Western Region, Coimbatore",Coimbatore Division,Sundakkamuthur BO,641010,BO,Delivery,COIMBATORE,TAMIL NADU,10.9566233,76.9240400
Tamilnadu Circle,"Western Region, Coimbatore",Coimbatore Division,Veerakeralam BO,641007,BO,Non Delivery,COIMBATORE,TAMIL NADU,11.0087888,76.9130198
Tamilnadu Circle,"Western Region, Coimbatore",Coimbatore Division,Devarayapuram BO,641109,BO,Delivery,COIMBATORE,TAMIL NADU,10.9949216,76.8135516
Tamilnadu Circle,"Western Region, Coimbatore",Coimbatore Division,Kallapalayam BO,641201,BO,Delivery,COIMBATORE,TAMIL NADU,11.0564597,77.0672483
Tamilnadu Circle,"Western Region, Coimbatore",Coimbatore Division,Periyakuyilai BO,641201,BO,Delivery,COIMBATORE,TAMIL NADU,10.9001633,77.0738033
Tamilnadu Circle,"Western Region, Coimbatore",Coimbatore Division,Krishnarayapuram BO,641006,BO,Non Delivery,COIMBATORE,TAMIL NADU,11.0475766,76.9669067
Tamilnadu Circle,"Western Region, Coimbatore",Coimbatore Division,Madukkarai Cusba BO,641105,BO,Non Delivery,COIMBATORE,TAMIL NADU,10.9040050,76.9632633
Tamilnadu Circle,"Western Region, Coimbatore",Coimbatore Division,Pichanur BO,641105,BO,Delivery,COIMBATORE,TAMIL NADU,10.8311916,76.8689833
Tamilnadu Circle,"Western Region, Coimbatore",Coimbatore Division,Edayapalayam BO,641016,BO,Delivery,COIMBATORE,TAMIL NADU,11.0403171,76.9240969
Tamilnadu Circle,"Western Region, Coimbatore",Coimbatore Division,Vilankurichi BO,641035,BO,Delivery,COIMBATORE,TAMIL NADU,10.9807583,76.7917216
Tamilnadu Circle,"Western Region, Coimbatore",Coimbatore Division,Kurumbapalayam BO,641107,BO,Delivery,COIMBATORE,TAMIL NADU,11.1126650,77.0300652
Tamilnadu Circle,"Western Region, Coimbatore",Coimbatore Division,Ponnegoundenpudur BO,641107,BO,Delivery,COIMBATORE,TAMIL NADU,11.1527858,77.0933369
Tamilnadu Circle,"Western Region, Coimbatore",Coimbatore Division,Mylampatti BO,641062,BO,Delivery,COIMBATORE,TAMIL NADU,11.0775816,77.0633083
Tamilnadu Circle,"Western Region, Coimbatore",Coimbatore Division,Agraharasamakulam BO,641110,BO,Delivery,COIMBATORE,TAMIL NADU,11.1499426,77.0174853
Tamilnadu Circle,"Western Region, Coimbatore",Coimbatore Division,Tenkarai BO,641101,BO,Delivery,COIMBATORE,TAMIL NADU,10.9479266,76.8452933
Tamilnadu Circle,"Western Region, Coimbatore",Coimbatore Division,Vellakinar BO,641029,BO,Delivery,COIMBATORE,TAMIL NADU,11.0739349,76.9546833
Tamilnadu Circle,"Western Region, Coimbatore",Coimbatore Division,Gudalurcoimbatore BO,641047,BO,Delivery,COIMBATORE,TAMIL NADU,11.1705650,76.9459083
Tamilnadu Circle,"Western Region, Coimbatore",Coimbatore Division,Semmedu BO,641114,BO,Delivery,COIMBATORE,TAMIL NADU,10.9573216,76.7583633
Tamilnadu Circle,"Western Region, Coimbatore",Coimbatore Division,Kondayampalayam BO,641110,BO,Non Delivery,COIMBATORE,TAMIL NADU,11.0976837,77.0156904
Tamilnadu Circle,"Western Region, Coimbatore",Coimbatore Division,Vellamadai BO,641110,BO,Delivery,COIMBATORE,TAMIL NADU,11.1622341,76.9962637
Tamilnadu Circle,"Western Region, Coimbatore",Coimbatore Division,Vellalapalayam Podanur BO,641111,BO,Non Delivery,COIMBATORE,TAMIL NADU,10.9754100,77.0283650
Tamilnadu Circle,"Western Region, Coimbatore",Coimbatore Division,Marudamalai BO,641046,BO,Non Delivery,COIMBATORE,TAMIL NADU,11.0441250,76.8615166
Tamilnadu Circle,"Western Region, Coimbatore",Coimbatore Division,Bilichi BO,641019,BO,Delivery,COIMBATORE,TAMIL NADU,11.1969066,76.9604066
Tamilnadu Circle,"Western Region, Coimbatore",Coimbatore Division,Kavundampalayam BO,641030,BO,Non Delivery,COIMBATORE,TAMIL NADU,11.0445926,76.9377753
Tamilnadu Circle,"Western Region, Coimbatore",Coimbatore Division,Seeranaickenpalayam BO,641007,BO,Non Delivery,COIMBATORE,TAMIL NADU,11.0104946,76.9308916
Tamilnadu Circle,"Western Region, Coimbatore",Coimbatore Division,Sundapalayam BO,641007,BO,Delivery,COIMBATORE,TAMIL NADU,11.0081513,76.8712831
Tamilnadu Circle,"Western Region, Coimbatore",Coimbatore Division,Naickenpalayam BO,641020,BO,Delivery,COIMBATORE,TAMIL NADU,11.1535333,76.9201816
Tamilnadu Circle,"Western Region, Coimbatore",Coimbatore Division,Tekkupalayam BO,641020,BO,Non Delivery,COIMBATORE,TAMIL NADU,11.1337366,76.9341300
Tamilnadu Circle,"Western Region, Coimbatore",Coimbatore Division,Anaikatti BO,641108,BO,Delivery,COIMBATORE,TAMIL NADU,11.1076555,76.7702481
Tamilnadu Circle,"Western Region, Coimbatore",Coimbatore Division,Nanjundapuramtadagam BO,641108,BO,Delivery,COIMBATORE,TAMIL NADU,11.0699833,76.8819300
Tamilnadu Circle,"Western Region, Coimbatore",Coimbatore Division,Pathanjalipuri BO,641108,BO,Delivery,COIMBATORE,TAMIL NADU,11.0760666,76.8248183
Tamilnadu Circle,"Western Region, Coimbatore",Coimbatore Division,Thennamanallur BO,641109,BO,Delivery,COIMBATORE,TAMIL NADU,10.9741416,76.8157833
Tamilnadu Circle,"Western Region, Coimbatore",Coimbatore Division,Viraliyur BO,641109,BO,Delivery,COIMBATORE,TAMIL NADU,10.9992600,76.7825300
Tamilnadu Circle,"Western Region, Coimbatore",Coimbatore Division,Selvapuram BO,641026,BO,Non Delivery,COIMBATORE,TAMIL NADU,10.9891966,76.9442983
Tamilnadu Circle,"Western Region, Coimbatore",Coimbatore Division,Sengalipalayam BO,641022,BO,Delivery,COIMBATORE,TAMIL NADU,11.1018680,76.9537677
Tamilnadu Circle,"Western Region, Coimbatore",Coimbatore Division,Kalampalayam BO,641010,BO,Delivery,COIMBATORE,TAMIL NADU,10.9807583,76.7917216
Tamilnadu Circle,"Western Region, Coimbatore",Coimbatore Division,Titipalayam BO,641010,BO,Delivery,COIMBATORE,TAMIL NADU,10.9500300,76.8861649
Tamilnadu Circle,"Western Region, Coimbatore",Coimbatore Division,Vedapatti BO,641007,BO,Delivery,COIMBATORE,TAMIL NADU,10.9946603,76.8963777
Tamilnadu Circle,"Western Region, Coimbatore",Coimbatore Division,Veerapanditadagam BO,641108,BO,Delivery,COIMBATORE,TAMIL NADU,11.0820399,76.8486033
Tamilnadu Circle,"Western Region, Coimbatore",Coimbatore Division,Deenampalayam BO,641109,BO,Delivery,COIMBATORE,TAMIL NADU,11.0043133,76.8572033
Tamilnadu Circle,"Western Region, Coimbatore",Coimbatore Division,Ikkarai Boluvampatti BO,641109,BO,Delivery,COIMBATORE,TAMIL NADU,10.9669650,76.8001600
Tamilnadu Circle,"Western Region, Coimbatore",Coimbatore Division,Narasipuram BO,641109,BO,Delivery,COIMBATORE,TAMIL NADU,10.9875600,76.7733300
Tamilnadu Circle,"Western Region, Coimbatore",Coimbatore Division,Thoppampatti BO,641017,BO,Delivery,COIMBATORE,TAMIL NADU,11.0942849,76.9302883
Tamilnadu Circle,"Western Region, Coimbatore",Coimbatore Division,Edayarpalayam BO,641025,BO,Non Delivery,COIMBATORE,TAMIL NADU,11.0403171,76.9240969
Tamilnadu Circle,"Western Region, Coimbatore",Coimbatore Division,Panapatti BO,641201,BO,Delivery,COIMBATORE,TAMIL NADU,10.8772266,77.1000700
Tamilnadu Circle,"Western Region, Coimbatore",Coimbatore Division,Maniakarampalayam BO,641006,BO,Non Delivery,COIMBATORE,TAMIL NADU,11.0475766,76.9669067
Tamilnadu Circle,"Western Region, Coimbatore",Coimbatore Division,Sugunapuram BO,641008,BO,Non Delivery,COIMBATORE,TAMIL NADU,10.9322116,76.9489066
Tamilnadu Circle,"Western Region, Coimbatore",Coimbatore Division,Kandegounden Salai BO,641105,BO,Delivery,COIMBATORE,TAMIL NADU,10.8755366,76.8944500
Tamilnadu Circle,"Western Region, Coimbatore",Coimbatore Division,Palathurai BO,641105,BO,Delivery,COIMBATORE,TAMIL NADU,10.8823800,76.9560466
Tamilnadu Circle,"Western Region, Coimbatore",Coimbatore Division,Pappampatti BO,641016,BO,Delivery,COIMBATORE,TAMIL NADU,11.0403171,76.9240969
Tamilnadu Circle,"Western Region, Coimbatore",Coimbatore Division,Myleripalayam BO,641032,BO,Delivery,COIMBATORE,TAMIL NADU,10.8702600,77.0239883
Tamilnadu Circle,"Western Region, Coimbatore",Coimbatore Division,Valukkuparai BO,641032,BO,Delivery,COIMBATORE,TAMIL NADU,10.8484533,76.9702083
Tamilnadu Circle,"Western Region, Coimbatore",Coimbatore Division,Ganesapuram BO,641107,BO,Delivery,COIMBATORE,TAMIL NADU,11.1741064,77.0569639
Tamilnadu Circle,"Western Region, Coimbatore",Coimbatore Division,Kattampatticoimbatore BO,641107,BO,Non Delivery,COIMBATORE,TAMIL NADU,11.1740216,77.0402016
Tamilnadu Circle,"Western Region, Coimbatore",Coimbatore Division,Pachapalayam BO,641107,BO,Delivery,COIMBATORE,TAMIL NADU,11.0967993,77.0702750
Tamilnadu Circle,"Western Region, Coimbatore",Coimbatore Division,Kottaipalayam BO,641110,BO,Non Delivery,COIMBATORE,TAMIL NADU,11.1819108,77.0295819
Tamilnadu Circle,"Western Region, Coimbatore",Coimbatore Division,Madhvarayapuram BO,641101,BO,Non Delivery,COIMBATORE,TAMIL NADU,10.9488200,76.7827766
Tamilnadu Circle,"Western Region, Coimbatore",Coimbatore Division,Puluvapatti BO,641101,BO,Delivery,COIMBATORE,TAMIL NADU,10.9622566,76.8159516
Tamilnadu Circle,"Western Region, Coimbatore",Coimbatore Division,Samichettipalayam BO,641047,BO,Delivery,COIMBATORE,TAMIL NADU,11.1637466,76.9366500
Tamilnadu Circle,"Western Region, Coimbatore",Coimbatore Division,Siruvani Adivaram BO,641114,BO,Delivery,COIMBATORE,TAMIL NADU,10.9434216,76.7159983
Tamilnadu Circle,"Western Region, Coimbatore",Coimbatore Division,Idigarai BO,641022,BO,Delivery,COIMBATORE,TAMIL NADU,11.1220471,76.9693977
Tamilnadu Circle,"Western Region, Coimbatore",Coimbatore Division,Somayampalayam BO,641108,BO,Delivery,COIMBATORE,TAMIL NADU,11.0601626,76.9061562
Tamilnadu Circle,"Western Region, Coimbatore",Coimbatore Division,Dhaliyur BO,641109,BO,Non Delivery,COIMBATORE,TAMIL NADU,11.0100416,76.8492799
Tamilnadu Circle,"Western Region, Coimbatore",Coimbatore Division,Jakkirnaickenpalayam BO,641109,BO,Delivery,COIMBATORE,TAMIL NADU,10.9807583,76.7917216
Tamilnadu Circle,"Western Region, Coimbatore",Coimbatore Division,Pannimadai BO,641017,BO,Delivery,COIMBATORE,TAMIL NADU,11.0858666,76.9167683
Tamilnadu Circle,"Western Region, Coimbatore",Coimbatore Division,Coimbatore HO,641001,HO,Delivery,COIMBATORE,TAMIL NADU,11.0,76.9632000
Tamilnadu Circle,"Western Region, Coimbatore",Coimbatore Division,Rathinasabapathy Puram HO,641002,HO,Delivery,COIMBATORE,TAMIL NADU,11.01,76.9510000
Tamilnadu Circle,"Western Region, Coimbatore",Tirupur Division,Mettupalayam HO,641301,HO,Delivery,COIMBATORE,TAMIL NADU,11.2925556,76.9401667
Tamilnadu Circle,"Western Region, Coimbatore",Pollachi Division,Somandurai S.O,642134,PO,Delivery,COIMBATORE,TAMIL NADU,10.9997222,76.9637222
Tamilnadu Circle,"Western Region, Coimbatore",Pollachi Division,Suleeswaran Patti S.O,642006,PO,Delivery,COIMBATORE,TAMIL NADU,10.9997222,76.9637222
Tamilnadu Circle,"Western Region, Coimbatore",Pollachi Division,Uthukuli Zamin S.O,642004,PO,Delivery,COIMBATORE,TAMIL NADU,10.9997222,76.9637222
Tamilnadu Circle,"Western Region, Coimbatore",Pollachi Division,Zamin Muthur S.O,642005,PO,Delivery,COIMBATORE,TAMIL NADU,10.6771667,76.9694444
Tamilnadu Circle,"Western Region, Coimbatore",Pollachi Division,Pollachi H.O,642001,HO,Delivery,COIMBATORE,TAMIL NADU,10.6594444,77.0078611
Tamilnadu Circle,"Western Region, Coimbatore",Pollachi Division,Vettaikaran Pudur S.O,642129,PO,Delivery,COIMBATORE,TAMIL NADU,10.5649444,76.9197778
Tamilnadu Circle,"Western Region, Coimbatore",Pollachi Division,Water Falls Estate S.O,642105,PO,Delivery,COIMBATORE,TAMIL NADU,10.4139167,76.9972222
Tamilnadu Circle,"Western Region, Coimbatore",Pollachi Division,Gomangalam S.O,642107,PO,Delivery,COIMBATORE,TAMIL NADU,10.9997222,76.9637222
Tamilnadu Circle,"Western Region, Coimbatore",Pollachi Division,Valparai S.O,642127,PO,Delivery,COIMBATORE,TAMIL NADU,10.3294722,76.9566944
Tamilnadu Circle,"Western Region, Coimbatore",Pollachi Division,Angalakurichi S.O,642007,PO,Delivery,COIMBATORE,TAMIL NADU,10.9997222,76.9637222
Tamilnadu Circle,"Western Region, Coimbatore",Pollachi Division,Malayandipattinam S.O,642114,PO,Delivery,COIMBATORE,TAMIL NADU,10.5419444,76.9831389
Tamilnadu Circle,"Western Region, Coimbatore",Pollachi Division,Vadasithur S.O,641202,PO,Delivery,COIMBATORE,TAMIL NADU,10.9997222,76.9637222
Tamilnadu Circle,"Western Region, Coimbatore",Tirupur Division,Kangayampalayam SO,641401,PO,Delivery,COIMBATORE,TAMIL NADU,11.025234,77.1535220
Tamilnadu Circle,"Western Region, Coimbatore",Tirupur Division,Annur SO,641653,PO,Delivery,COIMBATORE,TAMIL NADU,11.2318889,77.1050556
Tamilnadu Circle,"Western Region, Coimbatore",Tirupur Division,Arasur SO,641407,PO,Delivery,COIMBATORE,TAMIL NADU,11.0843889,77.1169167
Tamilnadu Circle,"Western Region, Coimbatore",Tirupur Division,Irugur SO,641103,PO,Delivery,COIMBATORE,TAMIL NADU,11.017019,77.0664390
Tamilnadu Circle,"Western Region, Coimbatore",Pollachi Division,Cinchona S.O,642106,PO,Delivery,COIMBATORE,TAMIL NADU,10.9997222,76.9637222
Tamilnadu Circle,"Western Region, Coimbatore",Pollachi Division,Iyerpadi S.O,642108,PO,Delivery,COIMBATORE,TAMIL NADU,10.3621111,76.9801667
Tamilnadu Circle,"Western Region, Coimbatore",Pollachi Division,Karamalai Bazaar S.O,642130,PO,Delivery,COIMBATORE,TAMIL NADU,10.3369722,76.9942222
Tamilnadu Circle,"Western Region, Coimbatore",Pollachi Division,Makkinaicken Patti S.O,642003,PO,Delivery,COIMBATORE,TAMIL NADU,10.6561111,77.0340000
Tamilnadu Circle,"Western Region, Coimbatore",Pollachi Division,Samathur S.O,642123,PO,Delivery,COIMBATORE,TAMIL NADU,10.9997222,76.9637222
Tamilnadu Circle,"Western Region, Coimbatore",Pollachi Division,Kinathukadavoo S.O,642109,PO,Delivery,COIMBATORE,TAMIL NADU,10.820722,77.0193890
Tamilnadu Circle,"Western Region, Coimbatore",Pollachi Division,Kovilpalayam S.O,642110,PO,Delivery,COIMBATORE,TAMIL NADU,10.7460556,77.0192778
Tamilnadu Circle,"Western Region, Coimbatore",Pollachi Division,Mahalinga Puram S.O,642002,PO,Delivery,COIMBATORE,TAMIL NADU,10.6692222,77.0125833
Tamilnadu Circle,"Western Region, Coimbatore",Pollachi Division,Mudis S.O,642117,PO,Delivery,COIMBATORE,TAMIL NADU,10.27725,76.9265278
Tamilnadu Circle,"Western Region, Coimbatore",Coimbatore Division,Coimbatore Fort SO,641001,PO,Non Delivery,COIMBATORE,TAMIL NADU,10.9891,76.9655700
Tamilnadu Circle,"Western Region, Coimbatore",Coimbatore Division,Coimbatore Racecourse SO,641018,PO,Non Delivery,COIMBATORE,TAMIL NADU,10.99831,76.9753800
Tamilnadu Circle,"Western Region, Coimbatore",Pollachi Division,Anaimalai S.O,642104,PO,Delivery,COIMBATORE,TAMIL NADU,10.58125,76.9333889
Tamilnadu Circle,"Western Region, Coimbatore",Pollachi Division,Jakkarpalayam S.O,642202,PO,Delivery,COIMBATORE,TAMIL NADU,10.9997222,76.9637222
Tamilnadu Circle,"Western Region, Coimbatore",Pollachi Division,Pollachi Bazaar S.O,642001,PO,Non Delivery,COIMBATORE,TAMIL NADU,10.65625,77.0085833
Tamilnadu Circle,"Western Region, Coimbatore",Pollachi Division,Sethumadai S.O,642133,PO,Delivery,COIMBATORE,TAMIL NADU,10.9997222,76.9637222
Tamilnadu Circle,"Western Region, Coimbatore",Pollachi Division,Sholayar Nagar S.O,642125,PO,Delivery,COIMBATORE,TAMIL NADU,10.3016389,76.8763056
Tamilnadu Circle,"Western Region, Coimbatore",Tirupur Division,Pogalur SO,641697,PO,Delivery,COIMBATORE,TAMIL NADU,11.258344,77.0385850
Tamilnadu Circle,"Western Region, Coimbatore",Tirupur Division,Sulur SO,641402,PO,Delivery,COIMBATORE,TAMIL NADU,11.025297,77.1258500
Tamilnadu Circle,"Western Region, Coimbatore",Tirupur Division,Sultanpet SO,641669,PO,Delivery,COIMBATORE,TAMIL NADU,10.877135,77.1974000
Tamilnadu Circle,"Western Region, Coimbatore",Pollachi Division,Aliyar Nagar S.O,642101,PO,Delivery,COIMBATORE,TAMIL NADU,10.9997222,76.9637222
Tamilnadu Circle,"Western Region, Coimbatore",Pollachi Division,Ambarampalayam S.O,642103,PO,Delivery,COIMBATORE,TAMIL NADU,10.6336944,76.9409167
Tamilnadu Circle,"Western Region, Coimbatore",Pollachi Division,N.G.M College S.O,642001,PO,Non Delivery,COIMBATORE,TAMIL NADU,10.6221,76.8790000
Tamilnadu Circle,"Western Region, Coimbatore",Tirupur Division,Karumathampatti SO,641659,PO,Delivery,COIMBATORE,TAMIL NADU,11.109445,77.1810950
Tamilnadu Circle,"Western Region, Coimbatore",Tirupur Division,Seeliyur SO,641113,PO,Delivery,COIMBATORE,TAMIL NADU,11.201353,76.8656950
Tamilnadu Circle,"Western Region, Coimbatore",Tirupur Division,Sirumugai SO,641302,PO,Delivery,COIMBATORE,TAMIL NADU,11.322521,77.0088611
Tamilnadu Circle,"Western Region, Coimbatore",Tirupur Division,Somanur SO,641668,PO,Delivery,COIMBATORE,TAMIL NADU,11.089898,77.1864600
Tamilnadu Circle,"Western Region, Coimbatore",Tirupur Division,Mahadevapuram SO,641305,PO,Delivery,COIMBATORE,TAMIL NADU,11.308852,76.9333790
Tamilnadu Circle,"Western Region, Coimbatore",Pollachi Division,Negamam S.O,642120,PO,Delivery,COIMBATORE,TAMIL NADU,10.74175,77.1012222
Tamilnadu Circle,"Western Region, Coimbatore",Coimbatore Division,Coimbatore Courts SO,641018,PO,Non Delivery,COIMBATORE,TAMIL NADU,10.999989,76.9703880
Tamilnadu Circle,"Western Region, Coimbatore",Coimbatore Division,Coimbatore Tidel Park SO,641014,PO,Non Delivery,COIMBATORE,TAMIL NADU,11.03162,77.0191200
Tamilnadu Circle,"Western Region, Coimbatore",Coimbatore Division,Ganapathy SO,641006,PO,Delivery,COIMBATORE,TAMIL NADU,11.033,76.9787000
Tamilnadu Circle,"Western Region, Coimbatore",Coimbatore Division,Kovaipudur SO,641042,PO,Delivery,COIMBATORE,TAMIL NADU,10.95774,76.9231200
Tamilnadu Circle,"Western Region, Coimbatore",Coimbatore Division,Krishnaswamy Nagar SO,641045,PO,Non Delivery,COIMBATORE,TAMIL NADU,11.0112,77.0361900
Tamilnadu Circle,"Western Region, Coimbatore",Coimbatore Division,Malumichampatti SO,641050,PO,Delivery,COIMBATORE,TAMIL NADU,11.0429,77.1139000
Tamilnadu Circle,"Western Region, Coimbatore",Coimbatore Division,Nanjundapuram SO,641036,PO,Delivery,COIMBATORE,TAMIL NADU,10.975509,76.9947270
Tamilnadu Circle,"Western Region, Coimbatore",Coimbatore Division,Neelikonampalayam SO,641033,PO,Delivery,COIMBATORE,TAMIL NADU,11.01112,77.0361900
Tamilnadu Circle,"Western Region, Coimbatore",Coimbatore Division,Ondipudur SO,641016,PO,Delivery,COIMBATORE,TAMIL NADU,11.00594,77.0470700
Tamilnadu Circle,"Western Region, Coimbatore",Coimbatore Division,Podanur Newtown SO,641023,PO,Non Delivery,COIMBATORE,TAMIL NADU,10.96397,76.9858400
Tamilnadu Circle,"Western Region, Coimbatore",Coimbatore Division,Sarkarsamakulam SO,641107,PO,Delivery,COIMBATORE,TAMIL NADU,11.13638,77.0351500
Tamilnadu Circle,"Western Region, Coimbatore",Coimbatore Division,CBE MplCentral Busstand SO,641018,PO,Non Delivery,COIMBATORE,TAMIL NADU,11.00205,76.9649000
Tamilnadu Circle,"Western Region, Coimbatore",Coimbatore Division,Chettipalayam SO,641201,PO,Delivery,COIMBATORE,TAMIL NADU,10.9142,77.0362200
Tamilnadu Circle,"Western Region, Coimbatore",Coimbatore Division,Chinnavedampatti SO,641049,PO,Delivery,COIMBATORE,TAMIL NADU,11.0611,76.9852400
Tamilnadu Circle,"Western Region, Coimbatore",Coimbatore Division,Coimbatore Aerodrome SO,641014,PO,Delivery,COIMBATORE,TAMIL NADU,11.02,77.0300000
Tamilnadu Circle,"Western Region, Coimbatore",Coimbatore Division,Coimbatore Central SO,641018,PO,Delivery,COIMBATORE,TAMIL NADU,11.00502,76.9751000
Tamilnadu Circle,"Western Region, Coimbatore",Coimbatore Division,Coimbatore Collectorate SO,641018,PO,Non Delivery,COIMBATORE,TAMIL NADU,11.002,76.9666000
Tamilnadu Circle,"Western Region, Coimbatore",Coimbatore Division,Coimbatore Industrial Estate SO,641021,PO,Delivery,COIMBATORE,TAMIL NADU,10.94123,76.9720300
Tamilnadu Circle,"Western Region, Coimbatore",Coimbatore Division,Coimbatore West SO,641001,PO,Non Delivery,COIMBATORE,TAMIL NADU,10.9935,76.9492000
Tamilnadu Circle,"Western Region, Coimbatore",Coimbatore Division,Kuniamuthur SO,641008,PO,Delivery,COIMBATORE,TAMIL NADU,10.9414,76.9520100
Tamilnadu Circle,"Western Region, Coimbatore",Coimbatore Division,Othakkalmandapam SO,641032,PO,Delivery,COIMBATORE,TAMIL NADU,10.8563,76.9432900
Tamilnadu Circle,"Western Region, Coimbatore",Coimbatore Division,Podanur SO,641023,PO,Delivery,COIMBATORE,TAMIL NADU,10.965,76.9882000
Tamilnadu Circle,"Western Region, Coimbatore",Coimbatore Division,Ramanathapuram Coimbatore SO,641045,PO,Delivery,COIMBATORE,TAMIL NADU,10.997,76.9978000
Tamilnadu Circle,"Western Region, Coimbatore",Coimbatore Division,Vaiyampalayam SO,641110,PO,Delivery,COIMBATORE,TAMIL NADU,11.13315,77.0043900
Tamilnadu Circle,"Western Region, Coimbatore",Coimbatore Division,Coimbatore Press Colony SO,641019,PO,Delivery,COIMBATORE,TAMIL NADU,11.17874,76.9568900
Tamilnadu Circle,"Western Region, Coimbatore",Coimbatore Division,Gnanambika Mills SO,641029,PO,Delivery,COIMBATORE,TAMIL NADU,11.05991,76.9461900
Tamilnadu Circle,"Western Region, Coimbatore",Coimbatore Division,Periyanaickenpalayam SO,641020,PO,Non Delivery,COIMBATORE,TAMIL NADU,11.15427,76.9469100
Tamilnadu Circle,"Western Region, Coimbatore",Coimbatore Division,Perur SO Coimbatore,641010,PO,Delivery,COIMBATORE,TAMIL NADU,11.00115,76.9635797
Tamilnadu Circle,"Western Region, Coimbatore",Coimbatore Division,Vadamadurai Kurudampalayam SO,641017,PO,Delivery,COIMBATORE,TAMIL NADU,11.08477,76.9381800
Tamilnadu Circle,"Western Region, Coimbatore",Coimbatore Division,Velandipalayam SO,641025,PO,Delivery,COIMBATORE,TAMIL NADU,11.035012,76.9334000
Tamilnadu Circle,"Western Region, Coimbatore",Coimbatore Division,Coimbatore Bazaar SO,641001,PO,Non Delivery,COIMBATORE,TAMIL NADU,10.995,76.9570000
Tamilnadu Circle,"Western Region, Coimbatore",Coimbatore Division,Commercial Tax Office Building SO,641018,PO,Non Delivery,COIMBATORE,TAMIL NADU,11.0103,76.9755380
Tamilnadu Circle,"Western Region, Coimbatore",Coimbatore Division,Gandhimaanagar SO,641004,PO,Non Delivery,COIMBATORE,TAMIL NADU,11.0414167,77.0032222
Tamilnadu Circle,"Western Region, Coimbatore",Coimbatore Division,Kalapatti SO,641048,PO,Delivery,COIMBATORE,TAMIL NADU,11.07592,77.0315100
Tamilnadu Circle,"Western Region, Coimbatore",Coimbatore Division,Pappanaickenpalayam SO,641037,PO,Delivery,COIMBATORE,TAMIL NADU,11.01788,76.9844000
Tamilnadu Circle,"Western Region, Coimbatore",Coimbatore Division,Pappanaickenpalayam West SO,641037,PO,Non Delivery,COIMBATORE,TAMIL NADU,11.01788,76.9844000
Tamilnadu Circle,"Western Region, Coimbatore",Coimbatore Division,Ramnagar Coimbatore SO,641009,PO,Delivery,COIMBATORE,TAMIL NADU,11.011,76.9661000
Tamilnadu Circle,"Western Region, Coimbatore",Coimbatore Division,Redfields SO,641018,PO,Non Delivery,COIMBATORE,TAMIL NADU,10.998,76.9830000
Tamilnadu Circle,"Western Region, Coimbatore",Coimbatore Division,Siddhapudur SO,641044,PO,Delivery,COIMBATORE,TAMIL NADU,11.01743,76.9844000
Tamilnadu Circle,"Western Region, Coimbatore",Coimbatore Division,Singanallur SO,641005,PO,Delivery,COIMBATORE,TAMIL NADU,10.9998611,77.0308056
Tamilnadu Circle,"Western Region, Coimbatore",Coimbatore Division,Sukrawarpettai SO,641001,PO,Non Delivery,COIMBATORE,TAMIL NADU,10.99964,76.9637000
Tamilnadu Circle,"Western Region, Coimbatore",Coimbatore Division,Gandhipuram SO Coimbatore,641012,PO,Non Delivery,COIMBATORE,TAMIL NADU,11.0209883,76.9663340
Tamilnadu Circle,"Western Region, Coimbatore",Coimbatore Division,GovtCollege Of Technology SO,641013,PO,Delivery,COIMBATORE,TAMIL NADU,11.02071,76.9363100
Tamilnadu Circle,"Western Region, Coimbatore",Coimbatore Division,Jothipuram SO,641047,PO,Delivery,COIMBATORE,TAMIL NADU,11.161877,76.9473150
Tamilnadu Circle,"Western Region, Coimbatore",Coimbatore Division,Karunyanagar SO,641114,PO,Delivery,COIMBATORE,TAMIL NADU,10.93975,76.7458500
Tamilnadu Circle,"Western Region, Coimbatore",Coimbatore Division,Kavundampalayam Colony SO,641030,PO,Delivery,COIMBATORE,TAMIL NADU,11.044519,76.9411200
Tamilnadu Circle,"Western Region, Coimbatore",Coimbatore Division,Lawley Road SO,641003,PO,Delivery,COIMBATORE,TAMIL NADU,11.011,76.9352000
Tamilnadu Circle,"Western Region, Coimbatore",Coimbatore Division,NGGO Colony SO,641022,PO,Delivery,COIMBATORE,TAMIL NADU,11.09,76.9449000
Tamilnadu Circle,"Western Region, Coimbatore",Coimbatore Division,Pappanaickenpudur SO,641041,PO,Delivery,COIMBATORE,TAMIL NADU,11.01982,76.9220000
Tamilnadu Circle,"Western Region, Coimbatore",Coimbatore Division,RSPuram East SO,641002,PO,Non Delivery,COIMBATORE,TAMIL NADU,11.009,76.9550000
Tamilnadu Circle,"Western Region, Coimbatore",Coimbatore Division,Tudiyalur SO,641034,PO,Delivery,COIMBATORE,TAMIL NADU,11.08107,76.9440100
Tamilnadu Circle,"Western Region, Coimbatore",Coimbatore Division,Vadavalli SO,641041,PO,Non Delivery,COIMBATORE,TAMIL NADU,11.02489,76.8993500
Tamilnadu Circle,"Western Region, Coimbatore",Coimbatore Division,Coimbatore Ukkadam SO,641008,PO,Non Delivery,COIMBATORE,TAMIL NADU,10.98469,76.9635000
Tamilnadu Circle,"Western Region, Coimbatore",Coimbatore Division,Madukkarai SO,641105,PO,Delivery,COIMBATORE,TAMIL NADU,10.91168,76.9491800
Tamilnadu Circle,"Western Region, Coimbatore",Coimbatore Division,Peelamedu East SO,641004,PO,Non Delivery,COIMBATORE,TAMIL NADU,11.02098,76.9663300
Tamilnadu Circle,"Western Region, Coimbatore",Coimbatore Division,Peelamedu SO,641004,PO,Delivery,COIMBATORE,TAMIL NADU,11.0142,76.5948000
Tamilnadu Circle,"Western Region, Coimbatore",Coimbatore Division,Saravanampatti SO,641035,PO,Delivery,COIMBATORE,TAMIL NADU,11.07529,77.0027400
Tamilnadu Circle,"Western Region, Coimbatore",Coimbatore Division,Sundarapuram SO,641024,PO,Delivery,COIMBATORE,TAMIL NADU,10.9579,76.9882000
Tamilnadu Circle,"Western Region, Coimbatore",Coimbatore Division,Uppilipalayam SO,641015,PO,Delivery,COIMBATORE,TAMIL NADU,11.00708,77.0229000
Tamilnadu Circle,"Western Region, Coimbatore",Coimbatore Division,NDC Coimbatore,641040,PO,Delivery,COIMBATORE,TAMIL NADU,11.042,76.9498
Tamilnadu Circle,"Western Region, Coimbatore",Coimbatore Division,Alandurai SO,641101,PO,Delivery,COIMBATORE,TAMIL NADU,10.953578,76.7884000
Tamilnadu Circle,"Western Region, Coimbatore",Coimbatore Division,Bharathiyar University SO,641046,PO,Delivery,COIMBATORE,TAMIL NADU,11.2497,76.7807000
Tamilnadu Circle,"Western Region, Coimbatore",Coimbatore Division,Komarapalayam Coimbatore SO,641026,PO,Delivery,COIMBATORE,TAMIL NADU,10.9883,76.9359000
Tamilnadu Circle,"Western Region, Coimbatore",Coimbatore Division,Rathinapuri SO,641027,PO,Delivery,COIMBATORE,TAMIL NADU,11.02685,76.9679080
Tamilnadu Circle,"Western Region, Coimbatore",Coimbatore Division,SBInstitute SO,641007,PO,Delivery,COIMBATORE,TAMIL NADU,11.00647,76.9161800
Tamilnadu Circle,"Western Region, Coimbatore",Coimbatore Division,Tadagam SO,641108,PO,Delivery,COIMBATORE,TAMIL NADU,11.081127,76.8678611
Tamilnadu Circle,"Western Region, Coimbatore",Coimbatore Division,Tatabad SO,641012,PO,Delivery,COIMBATORE,TAMIL NADU,11.0184,76.9578000
Tamilnadu Circle,"Western Region, Coimbatore",Coimbatore Division,Telungupalayam SO,641039,PO,Delivery,COIMBATORE,TAMIL NADU,11.1812,77.0798000
Tamilnadu Circle,"Western Region, Coimbatore",Coimbatore Division,Thondamuthur SO,641109,PO,Delivery,COIMBATORE,TAMIL NADU,10.99207,76.8411300
Tamilnadu Circle,"Western Region, Coimbatore",Coimbatore Division,Amritanagar SO,641112,PO,Delivery,COIMBATORE,TAMIL NADU,10.899746,76.9003570
Tamilnadu Circle,"Western Region, Coimbatore",Coimbatore Division,Sinniampalayam SO,641062,PO,Delivery,COIMBATORE,TAMIL NADU,11.05613,77.0635300
Tamilnadu Circle,"Western Region, Coimbatore",Coimbatore Division,Sowripalayam SO,641028,PO,Delivery,COIMBATORE,TAMIL NADU,10.9935302,76.9905000
Tamilnadu Circle,"Western Region, Coimbatore",Coimbatore Division,Vellalore SO,641111,PO,Delivery,COIMBATORE,TAMIL NADU,11.006,76.9689500
Tamilnadu Circle,"Western Region, Coimbatore",Coimbatore Division,Kuppakonanpudur SO,641038,PO,Delivery,COIMBATORE,TAMIL NADU,11.01822,76.9579590
Tamilnadu Circle,"Western Region, Coimbatore",Coimbatore Division,Narasimhanaickenpalayam SO,641031,PO,Delivery,COIMBATORE,TAMIL NADU,11.114581,76.9374770
Tamilnadu Circle,"Western Region, Coimbatore",Coimbatore Division,Sahs College SO,641043,PO,Delivery,COIMBATORE,TAMIL NADU,11.01983,76.9516000
Tamilnadu Circle,"Western Region, Coimbatore",Coimbatore Division,Saibaba Mission SO,641011,PO,Delivery,COIMBATORE,TAMIL NADU,11.026244,76.9473500
Tamilnadu Circle,"Western Region, Coimbatore",Coimbatore Division,Sri Ramakrishna Vidyalaya SO,641020,PO,Delivery,COIMBATORE,TAMIL NADU,11.149,76.9445800
Tamilnadu Circle,"Western Region, Coimbatore",Tirupur Division,Karamadai SO,641104,PO,Delivery,COIMBATORE,TAMIL NADU,11.242756,76.9608910
